CCSDS_OMM_VERS = 2.0
CREATION_DATE  = 
ORIGINATOR     = 

OBJECT_NAME    = UNKNOWN
OBJECT_ID      = 
CENTER_NAME    = EARTH
REF_FRAME      = TEME
TIME_SYSTEM    = UTC
MEAN_ELEMENT_THEORY = SGP/SGP4

EPOCH          = 2025-11-25T13:12:04.846176
MEAN_MOTION    = 2.99914043
ECCENTRICITY   = .6573427
INCLINATION    = 2.1098
RA_OF_ASC_NODE = 255.5935
ARG_OF_PERICENTER = 34.6099
MEAN_ANOMALY   = 124.0256

EPHEMERIS_TYPE = 0
CLASSIFICATION_TYPE = U
NORAD_CAT_ID   = 84932
ELEMENT_SET_NO = 999
REV_AT_EPOCH   = 13126
BSTAR          = .56728E-2
MEAN_MOTION_DOT = .729E-5
MEAN_MOTION_DDOT = 0

CCSDS_OMM_VERS = 2.0
CREATION_DATE  = 
ORIGINATOR     = 

OBJECT_NAME    = UNKNOWN
OBJECT_ID      = 
CENTER_NAME    = EARTH
REF_FRAME      = TEME
TIME_SYSTEM    = UTC
MEAN_ELEMENT_THEORY = SGP/SGP4

EPOCH          = 2025-11-20T04:42:40.258656
MEAN_MOTION    = 14.41014621
ECCENTRICITY   = .0046057
INCLINATION    = 98.4182
RA_OF_ASC_NODE = 295.5765
ARG_OF_PERICENTER = 229.5039
MEAN_ANOMALY   = 145.5334

EPHEMERIS_TYPE = 0
CLASSIFICATION_TYPE = U
NORAD_CAT_ID   = 85004
ELEMENT_SET_NO = 999
REV_AT_EPOCH   = 62765
BSTAR          = .35268E-3
MEAN_MOTION_DOT = .1104E-4
MEAN_MOTION_DDOT = 0

CCSDS_OMM_VERS = 2.0
CREATION_DATE  = 
ORIGINATOR     = 

OBJECT_NAME    = UNKNOWN
OBJECT_ID      = 
CENTER_NAME    = EARTH
REF_FRAME      = TEME
TIME_SYSTEM    = UTC
MEAN_ELEMENT_THEORY = SGP/SGP4

EPOCH          = 2025-11-22T02:39:37.947168
MEAN_MOTION    = 13.74985401
ECCENTRICITY   = .0027171
INCLINATION    = 99.2502
RA_OF_ASC_NODE = 188.6558
ARG_OF_PERICENTER = 309.9551
MEAN_ANOMALY   = 201.8772

EPHEMERIS_TYPE = 0
CLASSIFICATION_TYPE = U
NORAD_CAT_ID   = 85010
ELEMENT_SET_NO = 999
REV_AT_EPOCH   = 60108
BSTAR          = .14181E-2
MEAN_MOTION_DOT = .1314E-4
MEAN_MOTION_DDOT = 0

CCSDS_OMM_VERS = 2.0
CREATION_DATE  = 
ORIGINATOR     = 

OBJECT_NAME    = UNKNOWN
OBJECT_ID      = 
CENTER_NAME    = EARTH
REF_FRAME      = TEME
TIME_SYSTEM    = UTC
MEAN_ELEMENT_THEORY = SGP/SGP4

EPOCH          = 2025-11-20T01:24:10.245888
MEAN_MOTION    = 14.62248783
ECCENTRICITY   = .0015709
INCLINATION    = 74.0490
RA_OF_ASC_NODE = 81.6072
ARG_OF_PERICENTER = 348.5530
MEAN_ANOMALY   = 11.5277

EPHEMERIS_TYPE = 0
CLASSIFICATION_TYPE = U
NORAD_CAT_ID   = 85015
ELEMENT_SET_NO = 999
REV_AT_EPOCH   = 63929
BSTAR          = .1361E-3
MEAN_MOTION_DOT = .657E-5
MEAN_MOTION_DDOT = 0

CCSDS_OMM_VERS = 2.0
CREATION_DATE  = 
ORIGINATOR     = 

OBJECT_NAME    = UNKNOWN
OBJECT_ID      = 
CENTER_NAME    = EARTH
REF_FRAME      = TEME
TIME_SYSTEM    = UTC
MEAN_ELEMENT_THEORY = SGP/SGP4

EPOCH          = 2025-11-21T12:13:08.233248
MEAN_MOTION    = 14.72732960
ECCENTRICITY   = .0003128
INCLINATION    = 99.8520
RA_OF_ASC_NODE = 336.5047
ARG_OF_PERICENTER = 39.2995
MEAN_ANOMALY   = 114.2233

EPHEMERIS_TYPE = 0
CLASSIFICATION_TYPE = U
NORAD_CAT_ID   = 85023
ELEMENT_SET_NO = 999
REV_AT_EPOCH   = 62570
BSTAR          = .47209E-2
MEAN_MOTION_DOT = .30206E-3
MEAN_MOTION_DDOT = 0

CCSDS_OMM_VERS = 2.0
CREATION_DATE  = 
ORIGINATOR     = 

OBJECT_NAME    = UNKNOWN
OBJECT_ID      = 
CENTER_NAME    = EARTH
REF_FRAME      = TEME
TIME_SYSTEM    = UTC
MEAN_ELEMENT_THEORY = SGP/SGP4

EPOCH          = 2025-11-25T11:27:37.681344
MEAN_MOTION    = 13.74230899
ECCENTRICITY   = .0179026
INCLINATION    = 66.0392
RA_OF_ASC_NODE = 143.7804
ARG_OF_PERICENTER = 199.6628
MEAN_ANOMALY   = 159.7475

EPHEMERIS_TYPE = 0
CLASSIFICATION_TYPE = U
NORAD_CAT_ID   = 85027
ELEMENT_SET_NO = 999
REV_AT_EPOCH   = 60224
BSTAR          = .25606E-3
MEAN_MOTION_DOT = .192E-5
MEAN_MOTION_DDOT = 0

CCSDS_OMM_VERS = 2.0
CREATION_DATE  = 
ORIGINATOR     = 

OBJECT_NAME    = UNKNOWN
OBJECT_ID      = 
CENTER_NAME    = EARTH
REF_FRAME      = TEME
TIME_SYSTEM    = UTC
MEAN_ELEMENT_THEORY = SGP/SGP4

EPOCH          = 2025-11-24T02:24:42.273792
MEAN_MOTION    = 13.43387149
ECCENTRICITY   = .014116
INCLINATION    = 102.2214
RA_OF_ASC_NODE = 289.6270
ARG_OF_PERICENTER = 41.8857
MEAN_ANOMALY   = 319.2963

EPHEMERIS_TYPE = 0
CLASSIFICATION_TYPE = U
NORAD_CAT_ID   = 85047
ELEMENT_SET_NO = 999
REV_AT_EPOCH   = 57415
BSTAR          = .2908E-1
MEAN_MOTION_DOT = .17681E-3
MEAN_MOTION_DDOT = 0

CCSDS_OMM_VERS = 2.0
CREATION_DATE  = 
ORIGINATOR     = 

OBJECT_NAME    = UNKNOWN
OBJECT_ID      = 
CENTER_NAME    = EARTH
REF_FRAME      = TEME
TIME_SYSTEM    = UTC
MEAN_ELEMENT_THEORY = SGP/SGP4

EPOCH          = 2025-11-24T17:49:04.090080
MEAN_MOTION    = 12.76857922
ECCENTRICITY   = .0267338
INCLINATION    = 102.4002
RA_OF_ASC_NODE = 310.9148
ARG_OF_PERICENTER = 230.0305
MEAN_ANOMALY   = 311.1290

EPHEMERIS_TYPE = 0
CLASSIFICATION_TYPE = U
NORAD_CAT_ID   = 85061
ELEMENT_SET_NO = 999
REV_AT_EPOCH   = 55348
BSTAR          = .13278E-1
MEAN_MOTION_DOT = .3304E-4
MEAN_MOTION_DDOT = 0

CCSDS_OMM_VERS = 2.0
CREATION_DATE  = 
ORIGINATOR     = 

OBJECT_NAME    = UNKNOWN
OBJECT_ID      = 
CENTER_NAME    = EARTH
REF_FRAME      = TEME
TIME_SYSTEM    = UTC
MEAN_ELEMENT_THEORY = SGP/SGP4

EPOCH          = 2025-11-25T01:49:11.945280
MEAN_MOTION    = 14.40688867
ECCENTRICITY   = .0011547
INCLINATION    = 74.0461
RA_OF_ASC_NODE = 255.4391
ARG_OF_PERICENTER = 132.8175
MEAN_ANOMALY   = 242.4663

EPHEMERIS_TYPE = 0
CLASSIFICATION_TYPE = U
NORAD_CAT_ID   = 85100
ELEMENT_SET_NO = 999
REV_AT_EPOCH   = 63080
BSTAR          = .1613E-3
MEAN_MOTION_DOT = .489E-5
MEAN_MOTION_DDOT = 0

CCSDS_OMM_VERS = 2.0
CREATION_DATE  = 
ORIGINATOR     = 

OBJECT_NAME    = UNKNOWN
OBJECT_ID      = 
CENTER_NAME    = EARTH
REF_FRAME      = TEME
TIME_SYSTEM    = UTC
MEAN_ELEMENT_THEORY = SGP/SGP4

EPOCH          = 2025-11-25T13:36:35.769888
MEAN_MOTION    = 13.72867047
ECCENTRICITY   = .0010219
INCLINATION    = 100.0562
RA_OF_ASC_NODE = 69.5824
ARG_OF_PERICENTER = 62.2205
MEAN_ANOMALY   = 314.0376

EPHEMERIS_TYPE = 0
CLASSIFICATION_TYPE = U
NORAD_CAT_ID   = 85106
ELEMENT_SET_NO = 999
REV_AT_EPOCH   = 60071
BSTAR          = .87127E-3
MEAN_MOTION_DOT = .754E-5
MEAN_MOTION_DDOT = 0

CCSDS_OMM_VERS = 2.0
CREATION_DATE  = 
ORIGINATOR     = 

OBJECT_NAME    = UNKNOWN
OBJECT_ID      = 
CENTER_NAME    = EARTH
REF_FRAME      = TEME
TIME_SYSTEM    = UTC
MEAN_ELEMENT_THEORY = SGP/SGP4

EPOCH          = 2025-11-23T21:10:07.052448
MEAN_MOTION    = 14.77399811
ECCENTRICITY   = .0006609
INCLINATION    = 98.4030
RA_OF_ASC_NODE = 191.1120
ARG_OF_PERICENTER = 202.9169
MEAN_ANOMALY   = 157.1746

EPHEMERIS_TYPE = 0
CLASSIFICATION_TYPE = U
NORAD_CAT_ID   = 85151
ELEMENT_SET_NO = 999
REV_AT_EPOCH   = 47674
BSTAR          = .32998E-2
MEAN_MOTION_DOT = .23503E-3
MEAN_MOTION_DDOT = 0

CCSDS_OMM_VERS = 2.0
CREATION_DATE  = 
ORIGINATOR     = 

OBJECT_NAME    = UNKNOWN
OBJECT_ID      = 
CENTER_NAME    = EARTH
REF_FRAME      = TEME
TIME_SYSTEM    = UTC
MEAN_ELEMENT_THEORY = SGP/SGP4

EPOCH          = 2025-11-25T08:22:14.796768
MEAN_MOTION    = 13.71494706
ECCENTRICITY   = .0216475
INCLINATION    = 99.8548
RA_OF_ASC_NODE = 109.8629
ARG_OF_PERICENTER = 358.8902
MEAN_ANOMALY   = 29.7700

EPHEMERIS_TYPE = 0
CLASSIFICATION_TYPE = U
NORAD_CAT_ID   = 85210
ELEMENT_SET_NO = 999
REV_AT_EPOCH   = 59977
BSTAR          = .92348E-3
MEAN_MOTION_DOT = .935E-5
MEAN_MOTION_DDOT = 0

