UNKNOWN                 
1 84932U          25329.55005609  .00000729  00000+0  56728-2 0  9994
2 84932   2.1098 255.5935 6573427  34.6099 124.0256  2.99914043131261
UNKNOWN                 
1 85004U          25324.19629929  .00001104  00000+0  35268-3 0  9992
2 85004  98.4182 295.5765 0046057 229.5039 145.5334 14.41014621627657
UNKNOWN                 
1 85010U          25326.11085587  .00001314  00000+0  14181-2 0  9992
2 85010  99.2502 188.6558 0027171 309.9551 201.8772 13.74985401601088
UNKNOWN                 
1 85015U          25324.05845192  .00000657  00000+0  13610-3 0  9990
2 85015  74.0490  81.6072 0015709 348.5530  11.5277 14.62248783639296
UNKNOWN                 
1 85023U          25325.50912307  .00030206  00000+0  47209-2 0  9996
2 85023  99.8520 336.5047 0003128  39.2995 114.2233 14.72732960625709
UNKNOWN                 
1 85027U          25329.47751946  .00000192  00000+0  25606-3 0  9999
2 85027  66.0392 143.7804 0179026 199.6628 159.7475 13.74230899602241
UNKNOWN                 
1 85047U          25328.10048928  .00017681  00000+0  29080-1 0  9998
2 85047 102.2214 289.6270 0141160  41.8857 319.2963 13.43387149574156
UNKNOWN                 
1 85061U          25328.74240845  .00003304  00000+0  13278-1 0  9995
2 85061 102.4002 310.9148 0267338 230.0305 311.1290 12.76857922553480
UNKNOWN                 
1 85100U          25329.07583270  .00000489  00000+0  16130-3 0  9991
2 85100  74.0461 255.4391 0011547 132.8175 242.4663 14.40688867630808
UNKNOWN                 
1 85106U          25329.56708067  .00000754  00000+0  87127-3 0  9993
2 85106 100.0562  69.5824 0010219  62.2205 314.0376 13.72867047600713
UNKNOWN                 
1 85151U          25327.88202607  .00023503  00000+0  32998-2 0  9997
2 85151  98.4030 191.1120 0006609 202.9169 157.1746 14.77399811476740
UNKNOWN                 
1 85210U          25329.34878237  .00000935  00000+0  92348-3 0  9994
2 85210  99.8548 109.8629 0216475 358.8902  29.7700 13.71494706599770
